{
  "type": "FeatureCollection",
  "features": [
    {
      "type": "Feature",
      "properties": {
        "norad_id": 34790,
        "name": "COSMOS 2251 DEB",
        "group": "cosmos-2251-debris",
        "lat": 33.37955027125717,
        "lon": 25.633118810911835,
        "alt_km": 853.003640457553,
        "timestamp": "2025-12-27T20:30:59.675088+00:00",
        "meta_object_name": "COSMOS 2251 DEB",
        "meta_object_id": "1993-036AAT",
        "meta_epoch": "2025-12-25T15:51:16.162272",
        "meta_mean_motion": 14.24671167,
        "meta_eccentricity": 0.0100473,
        "meta_inclination": 74.0524,
        "meta_ra_of_asc_node": 220.442,
        "meta_arg_of_pericenter": 279.3563,
        "meta_mean_anomaly": 137.0748,
        "meta_ephemeris_type": 0,
        "meta_classification_type": "U",
        "meta_norad_cat_id": 34790,
        "meta_element_set_no": 999,
        "meta_rev_at_epoch": 86757,
        "meta_bstar": 0.00054898,
        "meta_mean_motion_dot": 1.32e-05,
        "meta_mean_motion_ddot": 0,
        "tle_line1": "1 34790U 93036AAT 25359.66060373  .00001320  00000+0  54898-3 0  9991",
        "tle_line2": "2 34790  74.0524 220.4420 0100473 279.3563 137.0748 14.24671167867573"
      },
      "geometry": {
        "type": "Point",
        "coordinates": [
          25.633118810911835,
          33.37955027125717
        ]
      }
    },
    {
      "type": "Feature",
      "properties": {
        "norad_id": 34792,
        "name": "COSMOS 2251 DEB",
        "group": "cosmos-2251-debris",
        "lat": -0.8747267719062988,
        "lon": 140.7691639485307,
        "alt_km": 713.3602919517998,
        "timestamp": "2025-12-27T20:30:59.675098+00:00",
        "meta_object_name": "COSMOS 2251 DEB",
        "meta_object_id": "1993-036AAV",
        "meta_epoch": "2025-12-26T20:28:39.708768",
        "meta_mean_motion": 14.56080726,
        "meta_eccentricity": 0.0012351,
        "meta_inclination": 74.0179,
        "meta_ra_of_asc_node": 142.9205,
        "meta_arg_of_pericenter": 238.0565,
        "meta_mean_anomaly": 272.7748,
        "meta_ephemeris_type": 0,
        "meta_classification_type": "U",
        "meta_norad_cat_id": 34792,
        "meta_element_set_no": 999,
        "meta_rev_at_epoch": 87855,
        "meta_bstar": 0.0014169,
        "meta_mean_motion_dot": 6.229e-05,
        "meta_mean_motion_ddot": 0,
        "tle_line1": "1 34792U 93036AAV 25360.85323737  .00006229  00000+0  14169-2 0  9991",
        "tle_line2": "2 34792  74.0179 142.9205 0012351 238.0565 272.7748 14.56080726878558"
      },
      "geometry": {
        "type": "Point",
        "coordinates": [
          140.7691639485307,
          -0.8747267719062988
        ]
      }
    },
    {
      "type": "Feature",
      "properties": {
        "norad_id": 34793,
        "name": "COSMOS 2251 DEB",
        "group": "cosmos-2251-debris",
        "lat": -73.65337166921483,
        "lon": 144.433362850343,
        "alt_km": 775.6393592537306,
        "timestamp": "2025-12-27T20:30:59.675108+00:00",
        "meta_object_name": "COSMOS 2251 DEB",
        "meta_object_id": "1993-036AAW",
        "meta_epoch": "2025-12-26T21:38:28.912128",
        "meta_mean_motion": 14.38666313,
        "meta_eccentricity": 0.0050933,
        "meta_inclination": 74.0014,
        "meta_ra_of_asc_node": 224.2033,
        "meta_arg_of_pericenter": 14.769,
        "meta_mean_anomaly": 4.6796,
        "meta_ephemeris_type": 0,
        "meta_classification_type": "U",
        "meta_norad_cat_id": 34793,
        "meta_element_set_no": 999,
        "meta_rev_at_epoch": 87534,
        "meta_bstar": 0.00024861,
        "meta_mean_motion_dot": 7.47e-06,
        "meta_mean_motion_ddot": 0,
        "tle_line1": "1 34793U 93036AAW 25360.90172352  .00000747  00000+0  24861-3 0  9993",
        "tle_line2": "2 34793  74.0014 224.2033 0050933  14.7690   4.6796 14.38666313875347"
      },
      "geometry": {
        "type": "Point",
        "coordinates": [
          144.433362850343,
          -73.65337166921483
        ]
      }
    },
    {
      "type": "Feature",
      "properties": {
        "norad_id": 34796,
        "name": "COSMOS 2251 DEB",
        "group": "cosmos-2251-debris",
        "lat": -13.618356303772238,
        "lon": 11.98389409460312,
        "alt_km": 736.5435446931033,
        "timestamp": "2025-12-27T20:30:59.675118+00:00",
        "meta_object_name": "COSMOS 2251 DEB",
        "meta_object_id": "1993-036AAZ",
        "meta_epoch": "2025-12-25T13:03:59.133024",
        "meta_mean_motion": 14.48745914,
        "meta_eccentricity": 0.0100284,
        "meta_inclination": 74.0282,
        "meta_ra_of_asc_node": 192.3362,
        "meta_arg_of_pericenter": 291.6358,
        "meta_mean_anomaly": 98.4563,
        "meta_ephemeris_type": 0,
        "meta_classification_type": "U",
        "meta_norad_cat_id": 34796,
        "meta_element_set_no": 999,
        "meta_rev_at_epoch": 88213,
        "meta_bstar": 0.00055203,
        "meta_mean_motion_dot": 2.189e-05,
        "meta_mean_motion_ddot": 0,
        "tle_line1": "1 34796U 93036AAZ 25359.54443441  .00002189  00000+0  55203-3 0  9990",
        "tle_line2": "2 34796  74.0282 192.3362 0100284 291.6358  98.4563 14.48745914882133"
      },
      "geometry": {
        "type": "Point",
        "coordinates": [
          11.98389409460312,
          -13.618356303772238
        ]
      }
    },
    {
      "type": "Feature",
      "properties": {
        "norad_id": 34797,
        "name": "COSMOS 2251 DEB",
        "group": "cosmos-2251-debris",
        "lat": 3.0713085967827527,
        "lon": 72.70784485176966,
        "alt_km": 801.3155312009112,
        "timestamp": "2025-12-27T20:30:59.675147+00:00",
        "meta_object_name": "COSMOS 2251 DEB",
        "meta_object_id": "1993-036ABA",
        "meta_epoch": "2025-12-22T12:22:54.757056",
        "meta_mean_motion": 14.42950692,
        "meta_eccentricity": 0.00710542,
        "meta_inclination": 73.9783,
        "meta_ra_of_asc_node": 81.7691,
        "meta_arg_of_pericenter": 193.6898,
        "meta_mean_anomaly": 166.2334,
        "meta_ephemeris_type": 0,
        "meta_classification_type": "U",
        "meta_norad_cat_id": 34797,
        "meta_element_set_no": 999,
        "meta_rev_at_epoch": 87556,
        "meta_bstar": 0.0021692417,
        "meta_mean_motion_dot": 7.461e-05,
        "meta_mean_motion_ddot": 0,
        "tle_line1": "1 34797U 93036ABA 25356.51591154  .00007461  00000+0  21692-2 0  9992",
        "tle_line2": "2 34797  73.9783  81.7691 0071054 193.6898 166.2334 14.42950692875560"
      },
      "geometry": {
        "type": "Point",
        "coordinates": [
          72.70784485176966,
          3.0713085967827527
        ]
      }
    },
    {
      "type": "Feature",
      "properties": {
        "norad_id": 34814,
        "name": "COSMOS 2251 DEB",
        "group": "cosmos-2251-debris",
        "lat": 19.469690563871133,
        "lon": -56.73137479870155,
        "alt_km": 806.13416796613,
        "timestamp": "2025-12-27T20:30:59.675158+00:00",
        "meta_object_name": "COSMOS 2251 DEB",
        "meta_object_id": "1993-036ABD",
        "meta_epoch": "2025-12-26T21:17:53.689344",
        "meta_mean_motion": 14.3695303,
        "meta_eccentricity": 0.005524,
        "meta_inclination": 73.896,
        "meta_ra_of_asc_node": 299.2,
        "meta_arg_of_pericenter": 185.6833,
        "meta_mean_anomaly": 232.3417,
        "meta_ephemeris_type": 0,
        "meta_classification_type": "U",
        "meta_norad_cat_id": 34814,
        "meta_element_set_no": 999,
        "meta_rev_at_epoch": 87536,
        "meta_bstar": 0.00081923,
        "meta_mean_motion_dot": 2.443e-05,
        "meta_mean_motion_ddot": 0,
        "tle_line1": "1 34814U 93036ABD 25360.88742696  .00002443  00000+0  81923-3 0  9995",
        "tle_line2": "2 34814  73.8960 299.2000 0055240 185.6833 232.3417 14.36953030875362"
      },
      "geometry": {
        "type": "Point",
        "coordinates": [
          -56.73137479870155,
          19.469690563871133
        ]
      }
    },
    {
      "type": "Feature",
      "properties": {
        "norad_id": 34815,
        "name": "COSMOS 2251 DEB",
        "group": "cosmos-2251-debris",
        "lat": -74.03402401951467,
        "lon": 122.32229954279013,
        "alt_km": 600.364900386714,
        "timestamp": "2025-12-27T20:30:59.675169+00:00",
        "meta_object_name": "COSMOS 2251 DEB",
        "meta_object_id": "1993-036ABE",
        "meta_epoch": "2025-12-27T07:55:39.589248",
        "meta_mean_motion": 14.78473831,
        "meta_eccentricity": 0.0058627,
        "meta_inclination": 74.0443,
        "meta_ra_of_asc_node": 213.1483,
        "meta_arg_of_pericenter": 279.2109,
        "meta_mean_anomaly": 80.2437,
        "meta_ephemeris_type": 0,
        "meta_classification_type": "U",
        "meta_norad_cat_id": 34815,
        "meta_element_set_no": 999,
        "meta_rev_at_epoch": 88843,
        "meta_bstar": 0.00079229,
        "meta_mean_motion_dot": 5.919e-05,
        "meta_mean_motion_ddot": 0,
        "tle_line1": "1 34815U 93036ABE 25361.33031932  .00005919  00000+0  79229-3 0  9998",
        "tle_line2": "2 34815  74.0443 213.1483 0058627 279.2109  80.2437 14.78473831888436"
      },
      "geometry": {
        "type": "Point",
        "coordinates": [
          122.32229954279013,
          -74.03402401951467
        ]
      }
    }
  ]
}